ONEWEB-0611             
1 54674U 22166AJ  22347.91667824  .00053192  00000+0  52543-2 0  9994
2 54674  86.5178 156.1500 0009520 216.3327  11.3036 14.91657227  1303
ONEWEB-0612             
1 54675U 22166AK  22347.91667824  .00054236  00000+0  54613-2 0  9995
2 54675  86.5192 156.1526 0006418 224.8688 349.3311 14.90900552  1306
ONEWEB-0615             
1 54676U 22166AL  22347.91667824  .00053913  00000+0  53564-2 0  9991
2 54676  86.5178 156.1512 0008495 215.0884   8.4784 14.91428811  1304
ONEWEB-0655             
1 54677U 22166AM  22347.91667824  .00053571  00000+0  53256-2 0  9990
2 54677  86.5163 156.1471 0008403 215.4059   7.8080 14.91407937  1308
ONEWEB-0659             
1 54678U 22166AN  22347.91667824  .00054316  00000+0  53885-2 0  9997
2 54678  86.5165 156.1462 0008741 215.2914   9.2405 14.91484205  1304
ONEWEB-0685             
1 54679U 22166AP  22347.91667824  .00053496  00000+0  53985-2 0  9997
2 54679  86.5186 156.1522 0006269 227.8163 344.9513 14.90818180  1304
ONEWEB-0712             
1 54680U 22166AQ  22347.91667824  .00052707  00000+0  51605-2 0  9990
2 54680  86.5178 156.1461 0010898 221.7650  11.9970 14.92003171  1302
ONEWEB-0714             
1 54681U 22166AR  22347.91667824  .00052686  00000+0  51309-2 0  9998
2 54681  86.5182 156.1452 0011337 225.7535  11.6385 14.92213820  1304
